{"type":"FeatureCollection","features":[{"type":"Feature","geometry":{"type":"Point","coordinates":[-80.32205,25.71621]},"properties":{"type":"R","desc":"STANDALONE GENERATOR FOR EXISTING BUILDING","address":"7887 SW 58 ST","date":"2025-10-22 00:00:00"}},{"type":"Feature","geometry":{"type":"Point","coordinates":[-80.3485,25.71199]},"properties":{"type":"R","desc":"STANDALONE GENERATOR FOR EXISTING BUILDING","address":"6020 SW 94 PL","date":"2024-08-08 00:00:00"}},{"type":"Feature","geometry":{"type":"Point","coordinates":[-80.31015,25.70203]},"properties":{"type":"R","desc":"STANDALONE GENERATOR FOR EXISTING BUILDING","address":"7320 SW 72 AVE","date":"2023-05-25 00:00:00"}},{"type":"Feature","geometry":{"type":"Point","coordinates":[-80.33913,25.7275]},"properties":{"type":"R","desc":"STANDALONE GENERATOR FOR EXISTING BUILDING","address":"4401 SW 89 AVE","date":"2026-03-10 00:00:00"}},{"type":"Feature","geometry":{"type":"Point","coordinates":[-80.24284,25.81965]},"properties":{"type":"R","desc":"STANDALONE GENERATOR FOR EXISTING BUILDING","address":"4900 NW 29 AVE","date":"2025-10-30 00:00:00"}},{"type":"Feature","geometry":{"type":"Point","coordinates":[-80.31174,25.70077]},"properties":{"type":"R","desc":"STANDALONE GENERATOR FOR EXISTING BUILDING","address":"7288 SW 74 LN","date":"2025-06-20 00:00:00"}},{"type":"Feature","geometry":{"type":"Point","coordinates":[-80.34684,25.75369]},"properties":{"type":"R","desc":"STANDALONE GENERATOR FOR EXISTING BUILDING","address":"1701 SW 93 PL","date":"2023-09-14 00:00:00"}},{"type":"Feature","geometry":{"type":"Point","coordinates":[-80.24489,25.83961]},"properties":{"type":"C","desc":"STANDALONE GENERATOR FOR EXISTING BUILDING","address":"7200 NW 29 CT","date":"2025-11-03 00:00:00"}},{"type":"Feature","geometry":{"type":"Point","coordinates":[-80.28933,25.73776]},"properties":{"type":"R","desc":"STANDALONE GENERATOR FOR EXISTING BUILDING","address":"5800 SW 35 ST","date":"2023-04-25 00:00:00"}},{"type":"Feature","geometry":{"type":"Point","coordinates":[-80.23319,25.82523]},"properties":{"type":"C","desc":"STANDALONE GENERATOR FOR EXISTING BUILDING","address":"5400 NW 22 AVE","date":"2023-05-05 00:00:00"}},{"type":"Feature","geometry":{"type":"Point","coordinates":[-80.34123,25.75184]},"properties":{"type":"R","desc":"STANDALONE GENERATOR FOR EXISTING BUILDING","address":"1840 SW 89 PL","date":"2023-07-25 00:00:00"}},{"type":"Feature","geometry":{"type":"Point","coordinates":[-80.34072,25.75427]},"properties":{"type":"R","desc":"STANDALONE GENERATOR FOR EXISTING BUILDING","address":"8931 SW 17 ST","date":"2023-10-03 00:00:00"}},{"type":"Feature","geometry":{"type":"Point","coordinates":[-80.26925,25.70367]},"properties":{"type":"R","desc":"STANDALONE GENERATOR FOR EXISTING BUILDING","address":"7320 SW 47 AVE","date":"2025-10-02 00:00:00"}},{"type":"Feature","geometry":{"type":"Point","coordinates":[-80.20536,25.8806]},"properties":{"type":"C","desc":"STANDALONE GENERATOR FOR EXISTING BUILDING","address":"325 NW 115 ST","date":"2024-06-13 00:00:00"}},{"type":"Feature","geometry":{"type":"Point","coordinates":[-80.34874,25.71779]},"properties":{"type":"R","desc":"STANDALONE GENERATOR FOR EXISTING BUILDING","address":"9470 SW 54 ST","date":"2024-03-04 00:00:00"}},{"type":"Feature","geometry":{"type":"Point","coordinates":[-80.31045,25.79644]},"properties":{"type":"C","desc":"STANDALONE GENERATOR FOR EXISTING BUILDING","address":"6990 NW 25 ST","date":"2024-03-19 00:00:00"}},{"type":"Feature","geometry":{"type":"Point","coordinates":[-80.27861,25.70067]},"properties":{"type":"R","desc":"STANDALONE GENERATOR FOR EXISTING BUILDING","address":"5280 SW 76 ST","date":"2025-04-21 00:00:00"}},{"type":"Feature","geometry":{"type":"Point","coordinates":[-80.22998,25.81147]},"properties":{"type":"C","desc":"STANDALONE GENERATOR FOR EXISTING BUILDING","address":"1907 NW 38 ST","date":"2022-08-25 00:00:00"}},{"type":"Feature","geometry":{"type":"Point","coordinates":[-80.34191,25.72629]},"properties":{"type":"R","desc":"STANDALONE GENERATOR FOR EXISTING BUILDING","address":"9015 SW 45 TER","date":"2024-11-07 00:00:00"}},{"type":"Feature","geometry":{"type":"Point","coordinates":[-80.34331,25.7523]},"properties":{"type":"R","desc":"STANDALONE GENERATOR FOR EXISTING BUILDING","address":"9120 SW 18 TER","date":"2025-09-10 00:00:00"}},{"type":"Feature","geometry":{"type":"Point","coordinates":[-80.31054,25.8253]},"properties":{"type":"C","desc":"STANDALONE GENERATOR FOR EXISTING BUILDING","address":"5601 NW 72 AVE","date":"2023-06-06 00:00:00"}},{"type":"Feature","geometry":{"type":"Point","coordinates":[-80.31059,25.71597]},"properties":{"type":"R","desc":"STANDALONE GENERATOR FOR EXISTING BUILDING","address":"7200 SW 58 ST","date":"2023-11-14 00:00:00"}},{"type":"Feature","geometry":{"type":"Point","coordinates":[-80.34457,25.75745]},"properties":{"type":"R","desc":"STANDALONE GENERATOR FOR EXISTING BUILDING","address":"1305 SW 92 CT","date":"2024-06-05 00:00:00"}},{"type":"Feature","geometry":{"type":"Point","coordinates":[-80.34388,25.69863]},"properties":{"type":"R","desc":"STANDALONE GENERATOR FOR EXISTING BUILDING","address":"9281 SW 76 ST","date":"2025-08-02 00:00:00"}},{"type":"Feature","geometry":{"type":"Point","coordinates":[-80.29506,25.73492]},"properties":{"type":"R","desc":"STANDALONE GENERATOR FOR EXISTING BUILDING","address":"3916 SW 62 AVE","date":"2023-05-02 00:00:00"}},{"type":"Feature","geometry":{"type":"Point","coordinates":[-80.21955,25.85905]},"properties":{"type":"R","desc":"STANDALONE GENERATOR FOR EXISTING BUILDING","address":"9205 NW 13 AVE","date":"2023-09-21 00:00:00"}},{"type":"Feature","geometry":{"type":"Point","coordinates":[-80.33248,25.70208]},"properties":{"type":"R","desc":"STANDALONE GENERATOR FOR EXISTING BUILDING","address":"8521 SW 72 TER","date":"2024-06-18 00:00:00"}},{"type":"Feature","geometry":{"type":"Point","coordinates":[-80.31307,25.82715]},"properties":{"type":"C","desc":"STANDALONE GENERATOR FOR EXISTING BUILDING","address":"5875 NW 72 AVE","date":"2023-10-23 00:00:00"}},{"type":"Feature","geometry":{"type":"Point","coordinates":[-80.18058,25.85776]},"properties":{"type":"C","desc":"STANDALONE GENERATOR FOR EXISTING BUILDING","address":"8951 NE 8 AVE","date":"2023-03-29 00:00:00"}},{"type":"Feature","geometry":{"type":"Point","coordinates":[-80.2571,25.87867]},"properties":{"type":"C","desc":"STANDALONE GENERATOR FOR EXISTING BUILDING","address":"11405 NW 36 AVE","date":"2023-08-16 00:00:00"}},{"type":"Feature","geometry":{"type":"Point","coordinates":[-80.33051,25.83283]},"properties":{"type":"C","desc":"STANDALONE GENERATOR FOR EXISTING BUILDING","address":"6508 NW 82 AVE","date":"2023-06-25 00:00:00"}},{"type":"Feature","geometry":{"type":"Point","coordinates":[-80.34566,25.72421]},"properties":{"type":"R","desc":"STANDALONE GENERATOR FOR EXISTING BUILDING","address":"9310 SW 48 ST","date":"2025-07-01 00:00:00"}},{"type":"Feature","geometry":{"type":"Point","coordinates":[-80.34363,25.72114]},"properties":{"type":"R","desc":"STANDALONE GENERATOR FOR EXISTING BUILDING","address":"5020 SW 92 AVE","date":"2026-01-05 00:00:00"}},{"type":"Feature","geometry":{"type":"Point","coordinates":[-80.29421,25.72744]},"properties":{"type":"R","desc":"STANDALONE GENERATOR FOR EXISTING BUILDING","address":"6140 SW 46 TER","date":"2024-10-31 00:00:00"}},{"type":"Feature","geometry":{"type":"Point","coordinates":[-80.22545,25.85658]},"properties":{"type":"R","desc":"STANDALONE GENERATOR FOR EXISTING BUILDING","address":"8931 NW 17 AVE","date":"2025-01-09 00:00:00"}},{"type":"Feature","geometry":{"type":"Point","coordinates":[-80.21816,25.84944]},"properties":{"type":"R","desc":"STANDALONE GENERATOR FOR EXISTING BUILDING","address":"8150 NW 12 CT","date":"2024-02-01 00:00:00"}},{"type":"Feature","geometry":{"type":"Point","coordinates":[-80.28084,25.69881]},"properties":{"type":"R","desc":"STANDALONE GENERATOR FOR EXISTING BUILDING","address":"5380 SW 78 ST","date":"2023-07-06 00:00:00"}},{"type":"Feature","geometry":{"type":"Point","coordinates":[-80.33653,25.69891]},"properties":{"type":"R","desc":"STANDALONE GENERATOR FOR EXISTING BUILDING","address":"8861 SW 76 ST","date":"2023-12-07 00:00:00"}},{"type":"Feature","geometry":{"type":"Point","coordinates":[-80.29083,25.72891]},"properties":{"type":"R","desc":"STANDALONE GENERATOR FOR EXISTING BUILDING","address":"5920 SW 45 ST","date":"2024-02-01 00:00:00"}},{"type":"Feature","geometry":{"type":"Point","coordinates":[-80.21186,25.85868]},"properties":{"type":"C","desc":"STANDALONE GENERATOR FOR EXISTING BUILDING","address":"9198 NW 8 AVE","date":"2025-07-11 00:00:00"}},{"type":"Feature","geometry":{"type":"Point","coordinates":[-80.27557,25.70041]},"properties":{"type":"R","desc":"STANDALONE GENERATOR FOR EXISTING BUILDING","address":"5031 SW 77 ST","date":"2023-05-22 00:00:00"}},{"type":"Feature","geometry":{"type":"Point","coordinates":[-80.32321,25.7497]},"properties":{"type":"R","desc":"STANDALONE GENERATOR FOR EXISTING BUILDING","address":"7845 SW 22 ST","date":"2024-02-02 00:00:00"}},{"type":"Feature","geometry":{"type":"Point","coordinates":[-80.28847,25.74236]},"properties":{"type":"R","desc":"STANDALONE GENERATOR FOR EXISTING BUILDING","address":"5773 SW 31 ST","date":"2023-11-16 00:00:00"}},{"type":"Feature","geometry":{"type":"Point","coordinates":[-80.27592,25.7004]},"properties":{"type":"R","desc":"STANDALONE GENERATOR FOR EXISTING BUILDING","address":"5051 SW 77 ST","date":"2023-05-10 00:00:00"}},{"type":"Feature","geometry":{"type":"Point","coordinates":[-80.34097,25.70614]},"properties":{"type":"R","desc":"STANDALONE GENERATOR FOR EXISTING BUILDING","address":"6740 SW 90 CT","date":"2024-10-07 00:00:00"}},{"type":"Feature","geometry":{"type":"Point","coordinates":[-80.30653,25.71474]},"properties":{"type":"R","desc":"STANDALONE GENERATOR FOR EXISTING BUILDING","address":"5940 SW 69 AVE","date":"2023-09-29 00:00:00"}},{"type":"Feature","geometry":{"type":"Point","coordinates":[-80.32404,25.7047]},"properties":{"type":"R","desc":"STANDALONE GENERATOR FOR EXISTING BUILDING","address":"7990 SW 69 TER","date":"2025-12-31 00:00:00"}},{"type":"Feature","geometry":{"type":"Point","coordinates":[-80.34338,25.71047]},"properties":{"type":"R","desc":"STANDALONE GENERATOR FOR EXISTING BUILDING","address":"9235 SW 63 ST","date":"2024-08-28 00:00:00"}},{"type":"Feature","geometry":{"type":"Point","coordinates":[-80.29125,25.7282]},"properties":{"type":"R","desc":"STANDALONE GENERATOR FOR EXISTING BUILDING","address":"5940 SW 46 ST","date":"2025-05-16 00:00:00"}},{"type":"Feature","geometry":{"type":"Point","coordinates":[-80.34712,25.71175]},"properties":{"type":"R","desc":"STANDALONE GENERATOR FOR EXISTING BUILDING","address":"9411 SW 61 ST","date":"2025-02-18 00:00:00"}},{"type":"Feature","geometry":{"type":"Point","coordinates":[-80.34402,25.71176]},"properties":{"type":"R","desc":"STANDALONE GENERATOR FOR EXISTING BUILDING","address":"6101 SW 93 AVE","date":"2025-01-28 00:00:00"}},{"type":"Feature","geometry":{"type":"Point","coordinates":[-80.22705,25.88251]},"properties":{"type":"C","desc":"STANDALONE GENERATOR FOR EXISTING BUILDING","address":"11860 NW 17 AVE","date":"2024-10-30 00:00:00"}},{"type":"Feature","geometry":{"type":"Point","coordinates":[-80.33815,25.82712]},"properties":{"type":"C","desc":"STANDALONE GENERATOR FOR EXISTING BUILDING","address":"8795 NW 58 ST","date":"2024-07-09 00:00:00"}},{"type":"Feature","geometry":{"type":"Point","coordinates":[-80.34697,25.71305]},"properties":{"type":"R","desc":"STANDALONE GENERATOR FOR EXISTING BUILDING","address":"5910 SW 94 AVE","date":"2024-12-19 00:00:00"}},{"type":"Feature","geometry":{"type":"Point","coordinates":[-80.31338,25.70599]},"properties":{"type":"R","desc":"STANDALONE GENERATOR FOR EXISTING BUILDING","address":"6850 SW 73 CT","date":"2025-03-11 00:00:00"}},{"type":"Feature","geometry":{"type":"Point","coordinates":[-80.29116,25.7515]},"properties":{"type":"R","desc":"STANDALONE GENERATOR FOR EXISTING BUILDING","address":"2033 SW 59 AVE","date":"2025-02-21 00:00:00"}},{"type":"Feature","geometry":{"type":"Point","coordinates":[-80.30588,25.7045]},"properties":{"type":"R","desc":"STANDALONE GENERATOR FOR EXISTING BUILDING","address":"7115 SW 69 CT","date":"2025-03-17 00:00:00"}},{"type":"Feature","geometry":{"type":"Point","coordinates":[-80.27732,25.70073]},"properties":{"type":"R","desc":"STANDALONE GENERATOR FOR EXISTING BUILDING","address":"5208 SW 76 ST","date":"2024-07-03 00:00:00"}},{"type":"Feature","geometry":{"type":"Point","coordinates":[-80.34503,25.74234]},"properties":{"type":"R","desc":"STANDALONE GENERATOR FOR EXISTING BUILDING","address":"2905 SW 92 PL","date":"2024-04-17 00:00:00"}},{"type":"Feature","geometry":{"type":"Point","coordinates":[-80.33726,25.72121]},"properties":{"type":"R","desc":"STANDALONE GENERATOR FOR EXISTING BUILDING","address":"5045 SW 88 CT","date":"2023-09-06 00:00:00"}},{"type":"Feature","geometry":{"type":"Point","coordinates":[-80.35195,25.75916]},"properties":{"type":"R","desc":"STANDALONE GENERATOR FOR EXISTING BUILDING","address":"9640 SW 10 TER","date":"2024-01-24 00:00:00"}},{"type":"Feature","geometry":{"type":"Point","coordinates":[-80.33429,25.76276]},"properties":{"type":"R","desc":"STANDALONE GENERATOR FOR EXISTING BUILDING","address":"8510 GRAND CANAL DR","date":"2023-12-28 00:00:00"}},{"type":"Feature","geometry":{"type":"Point","coordinates":[-80.3299,25.74287]},"properties":{"type":"R","desc":"STANDALONE GENERATOR FOR EXISTING BUILDING","address":"8311 SW 29 ST","date":"2024-09-16 00:00:00"}},{"type":"Feature","geometry":{"type":"Point","coordinates":[-80.34073,25.70154]},"properties":{"type":"C","desc":"STANDALONE GENERATOR FOR EXISTING BUILDING","address":"9040 SUNSET DR","date":"2026-01-20 00:00:00"}},{"type":"Feature","geometry":{"type":"Point","coordinates":[-80.3184,25.80563]},"properties":{"type":"C","desc":"STANDALONE GENERATOR FOR EXISTING BUILDING","address":"3400 NW 74 AVE","date":"2026-02-12 00:00:00"}},{"type":"Feature","geometry":{"type":"Point","coordinates":[-80.2571,25.87867]},"properties":{"type":"C","desc":"STANDALONE GENERATOR FOR EXISTING BUILDING","address":"11405 NW 36 AVE","date":"2023-10-16 00:00:00"}},{"type":"Feature","geometry":{"type":"Point","coordinates":[-80.29082,25.72659]},"properties":{"type":"R","desc":"STANDALONE GENERATOR FOR EXISTING BUILDING","address":"5921 SW 48 ST","date":"2023-10-06 00:00:00"}},{"type":"Feature","geometry":{"type":"Point","coordinates":[-80.25355,25.81581]},"properties":{"type":"C","desc":"STANDALONE GENERATOR FOR EXISTING BUILDING","address":"3520 NW 46 ST","date":"2024-12-11 00:00:00"}},{"type":"Feature","geometry":{"type":"Point","coordinates":[-80.3376,25.71313]},"properties":{"type":"R","desc":"STANDALONE GENERATOR FOR EXISTING BUILDING","address":"8835 SW 60 ST","date":"2025-08-15 00:00:00"}},{"type":"Feature","geometry":{"type":"Point","coordinates":[-80.32422,25.7409]},"properties":{"type":"R","desc":"STANDALONE GENERATOR FOR EXISTING BUILDING","address":"3135 SW 79 CT","date":"2025-09-15 00:00:00"}},{"type":"Feature","geometry":{"type":"Point","coordinates":[-80.34036,25.71588]},"properties":{"type":"R","desc":"STANDALONE GENERATOR FOR EXISTING BUILDING","address":"8965 SW 56 TER","date":"2024-08-30 00:00:00"}},{"type":"Feature","geometry":{"type":"Point","coordinates":[-80.28125,25.70009]},"properties":{"type":"R","desc":"STANDALONE GENERATOR FOR EXISTING BUILDING","address":"7631 SW 54 AVE","date":"2024-01-19 00:00:00"}},{"type":"Feature","geometry":{"type":"Point","coordinates":[-80.28662,25.71627]},"properties":{"type":"C","desc":"STANDALONE GENERATOR FOR EXISTING BUILDING","address":"5830 SW 57 AVE","date":"2024-12-12 00:00:00"}},{"type":"Feature","geometry":{"type":"Point","coordinates":[-80.31239,25.71404]},"properties":{"type":"R","desc":"STANDALONE GENERATOR FOR EXISTING BUILDING","address":"7300 SW 60 ST","date":"2024-02-28 00:00:00"}},{"type":"Feature","geometry":{"type":"Point","coordinates":[-80.31988,25.79794]},"properties":{"type":"C","desc":"STANDALONE GENERATOR FOR EXISTING BUILDING","address":"7600 NW 26 ST","date":"2024-04-22 00:00:00"}},{"type":"Feature","geometry":{"type":"Point","coordinates":[-80.32539,25.70185]},"properties":{"type":"R","desc":"STANDALONE GENERATOR FOR EXISTING BUILDING","address":"7255 SW 82 AVE","date":"2025-07-01 00:00:00"}},{"type":"Feature","geometry":{"type":"Point","coordinates":[-80.34417,25.75376]},"properties":{"type":"R","desc":"STANDALONE GENERATOR FOR EXISTING BUILDING","address":"1700 SW 92 AVE","date":"2024-11-13 00:00:00"}},{"type":"Feature","geometry":{"type":"Point","coordinates":[-80.34897,25.81006]},"properties":{"type":"C","desc":"STANDALONE GENERATOR FOR EXISTING BUILDING","address":"9300 NW 41 ST","date":"2023-09-26 00:00:00"}},{"type":"Feature","geometry":{"type":"Point","coordinates":[-80.26772,25.70453]},"properties":{"type":"R","desc":"STANDALONE GENERATOR FOR EXISTING BUILDING","address":"4550 SUNSET DR","date":"2023-08-17 00:00:00"}},{"type":"Feature","geometry":{"type":"Point","coordinates":[-80.35094,25.72226]},"properties":{"type":"R","desc":"STANDALONE GENERATOR FOR EXISTING BUILDING","address":"4921 SW 97 AVE","date":"2023-04-18 00:00:00"}},{"type":"Feature","geometry":{"type":"Point","coordinates":[-80.31263,25.70122]},"properties":{"type":"R","desc":"STANDALONE GENERATOR FOR EXISTING BUILDING","address":"7333 SW 74 LN","date":"2025-03-28 00:00:00"}},{"type":"Feature","geometry":{"type":"Point","coordinates":[-80.35012,25.72115]},"properties":{"type":"R","desc":"STANDALONE GENERATOR FOR EXISTING BUILDING","address":"5061 SW 96 AVE","date":"2023-05-11 00:00:00"}},{"type":"Feature","geometry":{"type":"Point","coordinates":[-80.33404,25.72392]},"properties":{"type":"R","desc":"STANDALONE GENERATOR FOR EXISTING BUILDING","address":"8540 SW 48 ST","date":"2024-04-09 00:00:00"}},{"type":"Feature","geometry":{"type":"Point","coordinates":[-80.27576,25.70043]},"properties":{"type":"R","desc":"STANDALONE GENERATOR FOR EXISTING BUILDING","address":"5041 SW 77 ST","date":"2023-06-09 00:00:00"}},{"type":"Feature","geometry":{"type":"Point","coordinates":[-80.32964,25.75448]},"properties":{"type":"R","desc":"STANDALONE GENERATOR FOR EXISTING BUILDING","address":"1634 SW 82 PL","date":"2025-03-19 00:00:00"}},{"type":"Feature","geometry":{"type":"Point","coordinates":[-80.34639,25.73353]},"properties":{"type":"C","desc":"STANDALONE GENERATOR FOR EXISTING BUILDING","address":"9227 SW 40 ST","date":"2024-08-02 00:00:00"}},{"type":"Feature","geometry":{"type":"Point","coordinates":[-80.33449,25.73517]},"properties":{"type":"R","desc":"STANDALONE GENERATOR FOR EXISTING BUILDING","address":"3735 SW 86 AVE","date":"2024-07-31 00:00:00"}},{"type":"Feature","geometry":{"type":"Point","coordinates":[-80.27827,25.70152]},"properties":{"type":"R","desc":"STANDALONE GENERATOR FOR EXISTING BUILDING","address":"7524 SW 52 CT","date":"2024-07-30 00:00:00"}},{"type":"Feature","geometry":{"type":"Point","coordinates":[-80.34004,25.72042]},"properties":{"type":"R","desc":"STANDALONE GENERATOR FOR EXISTING BUILDING","address":"8941 SW 52 ST","date":"2025-04-22 00:00:00"}},{"type":"Feature","geometry":{"type":"Point","coordinates":[-80.33322,25.7493]},"properties":{"type":"C","desc":"STANDALONE GENERATOR FOR EXISTING BUILDING","address":"2275 SW 87 AVE","date":"2015-04-16 00:00:00"}},{"type":"Feature","geometry":{"type":"Point","coordinates":[-80.29364,25.73858]},"properties":{"type":"R","desc":"STANDALONE GENERATOR FOR EXISTING BUILDING","address":"6029 N WATERWAY DR","date":"2024-02-09 00:00:00"}},{"type":"Feature","geometry":{"type":"Point","coordinates":[-80.28291,25.70415]},"properties":{"type":"R","desc":"STANDALONE GENERATOR FOR EXISTING BUILDING","address":"7228 SW 54 CT","date":"2025-08-04 00:00:00"}},{"type":"Feature","geometry":{"type":"Point","coordinates":[-80.3458,25.71035]},"properties":{"type":"R","desc":"STANDALONE GENERATOR FOR EXISTING BUILDING","address":"9381 SW 63 ST","date":"2025-07-07 00:00:00"}},{"type":"Feature","geometry":{"type":"Point","coordinates":[-80.32421,25.7508]},"properties":{"type":"R","desc":"STANDALONE GENERATOR FOR EXISTING BUILDING","address":"7910 SW 21 ST","date":"2023-10-20 00:00:00"}},{"type":"Feature","geometry":{"type":"Point","coordinates":[-80.33062,25.76568]},"properties":{"type":"R","desc":"STANDALONE GENERATOR FOR EXISTING BUILDING","address":"8302 SW 4 ST","date":"2024-07-31 00:00:00"}},{"type":"Feature","geometry":{"type":"Point","coordinates":[-80.24885,25.84784]},"properties":{"type":"R","desc":"STANDALONE GENERATOR FOR EXISTING BUILDING","address":"3130 NW 81 TER","date":"2024-07-26 00:00:00"}},{"type":"Feature","geometry":{"type":"Point","coordinates":[-80.31505,25.71239]},"properties":{"type":"R","desc":"STANDALONE GENERATOR FOR EXISTING BUILDING","address":"6129 SW 74 CT","date":"2025-08-21 00:00:00"}},{"type":"Feature","geometry":{"type":"Point","coordinates":[-80.3304,25.75291]},"properties":{"type":"R","desc":"STANDALONE GENERATOR FOR EXISTING BUILDING","address":"1820 SW 83 AVE","date":"2023-10-03 00:00:00"}},{"type":"Feature","geometry":{"type":"Point","coordinates":[-80.30833,25.70305]},"properties":{"type":"R","desc":"STANDALONE GENERATOR FOR EXISTING BUILDING","address":"7100 SUNSET DR","date":"2024-02-20 00:00:00"}},{"type":"Feature","geometry":{"type":"Point","coordinates":[-80.18748,25.87445]},"properties":{"type":"R","desc":"STANDALONE GENERATOR FOR EXISTING BUILDING","address":"510 NE 108 ST","date":"2024-02-21 00:00:00"}},{"type":"Feature","geometry":{"type":"Point","coordinates":[-80.30982,25.70014]},"properties":{"type":"R","desc":"STANDALONE GENERATOR FOR EXISTING BUILDING","address":"7201 SW 76 ST","date":"2024-02-28 00:00:00"}},{"type":"Feature","geometry":{"type":"Point","coordinates":[-80.32461,25.70124]},"properties":{"type":"R","desc":"STANDALONE GENERATOR FOR EXISTING BUILDING","address":"7350 SW 80 CT","date":"2025-07-31 00:00:00"}},{"type":"Feature","geometry":{"type":"Point","coordinates":[-80.19821,25.85133]},"properties":{"type":"R","desc":"STANDALONE GENERATOR FOR EXISTING BUILDING","address":"55 NW 83 ST","date":"2024-02-23 00:00:00"}},{"type":"Feature","geometry":{"type":"Point","coordinates":[-80.29105,25.72753]},"properties":{"type":"R","desc":"STANDALONE GENERATOR FOR EXISTING BUILDING","address":"5930 SW 46 ST","date":"2025-05-27 00:00:00"}},{"type":"Feature","geometry":{"type":"Point","coordinates":[-80.34639,25.73353]},"properties":{"type":"C","desc":"STANDALONE GENERATOR FOR EXISTING BUILDING","address":"3922 SW 92 AVE","date":"2024-07-01 00:00:00"}},{"type":"Feature","geometry":{"type":"Point","coordinates":[-80.34373,25.75663]},"properties":{"type":"R","desc":"STANDALONE GENERATOR FOR EXISTING BUILDING","address":"1401 SW 92 AVE","date":"2025-09-17 00:00:00"}},{"type":"Feature","geometry":{"type":"Point","coordinates":[-80.32989,25.7166]},"properties":{"type":"R","desc":"STANDALONE GENERATOR FOR EXISTING BUILDING","address":"8350 SW 56 ST","date":"2025-12-22 00:00:00"}},{"type":"Feature","geometry":{"type":"Point","coordinates":[-80.33248,25.72765]},"properties":{"type":"R","desc":"STANDALONE GENERATOR FOR EXISTING BUILDING","address":"8450 SW 44 ST","date":"2024-08-07 00:00:00"}},{"type":"Feature","geometry":{"type":"Point","coordinates":[-80.28119,25.69855]},"properties":{"type":"R","desc":"STANDALONE GENERATOR FOR EXISTING BUILDING","address":"7815 SW 54 AVE","date":"2025-02-27 00:00:00"}},{"type":"Feature","geometry":{"type":"Point","coordinates":[-80.32798,25.72684]},"properties":{"type":"R","desc":"STANDALONE GENERATOR FOR EXISTING BUILDING","address":"8235 SW 46 ST","date":"2024-07-10 00:00:00"}},{"type":"Feature","geometry":{"type":"Point","coordinates":[-80.33444,25.75714]},"properties":{"type":"R","desc":"STANDALONE GENERATOR FOR EXISTING BUILDING","address":"1320 SW 85 CT","date":"2025-10-14 00:00:00"}},{"type":"Feature","geometry":{"type":"Point","coordinates":[-80.31628,25.82843]},"properties":{"type":"C","desc":"STANDALONE GENERATOR FOR EXISTING BUILDING","address":"7320 NW 61 ST","date":"2025-09-29 00:00:00"}},{"type":"Feature","geometry":{"type":"Point","coordinates":[-80.25452,25.84804]},"properties":{"type":"R","desc":"STANDALONE GENERATOR FOR EXISTING BUILDING","address":"3515 NW 81 TER","date":"2025-01-23 00:00:00"}},{"type":"Feature","geometry":{"type":"Point","coordinates":[-80.30727,25.71222]},"properties":{"type":"R","desc":"STANDALONE GENERATOR FOR EXISTING BUILDING","address":"6930 SW 62 ST","date":"2023-11-28 00:00:00"}},{"type":"Feature","geometry":{"type":"Point","coordinates":[-80.32843,25.73751]},"properties":{"type":"R","desc":"STANDALONE GENERATOR FOR EXISTING BUILDING","address":"8230 SW 35 TER","date":"2024-07-08 00:00:00"}},{"type":"Feature","geometry":{"type":"Point","coordinates":[-80.28785,25.74241]},"properties":{"type":"R","desc":"STANDALONE GENERATOR FOR EXISTING BUILDING","address":"5731 SW 31 ST","date":"2023-11-29 00:00:00"}},{"type":"Feature","geometry":{"type":"Point","coordinates":[-80.29322,25.87586]},"properties":{"type":"R","desc":"STANDALONE GENERATOR FOR EXISTING BUILDING","address":"5775 NW 112 TER","date":"2025-12-30 00:00:00"}},{"type":"Feature","geometry":{"type":"Point","coordinates":[-80.3418,25.70663]},"properties":{"type":"R","desc":"STANDALONE GENERATOR FOR EXISTING BUILDING","address":"6702 SW 91 AVE","date":"2024-10-02 00:00:00"}},{"type":"Feature","geometry":{"type":"Point","coordinates":[-80.23666,25.81466]},"properties":{"type":"R","desc":"STANDALONE GENERATOR FOR EXISTING BUILDING","address":"2409 NW 43 ST","date":"2022-06-28 00:00:00"}},{"type":"Feature","geometry":{"type":"Point","coordinates":[-80.27857,25.69956]},"properties":{"type":"R","desc":"STANDALONE GENERATOR FOR EXISTING BUILDING","address":"7731 SW 53 AVE","date":"2025-07-28 00:00:00"}},{"type":"Feature","geometry":{"type":"Point","coordinates":[-80.32864,25.70096]},"properties":{"type":"R","desc":"STANDALONE GENERATOR FOR EXISTING BUILDING","address":"7401 SW 83 CT","date":"2025-04-07 00:00:00"}},{"type":"Feature","geometry":{"type":"Point","coordinates":[-80.33191,25.75288]},"properties":{"type":"R","desc":"STANDALONE GENERATOR FOR EXISTING BUILDING","address":"1810 SW 84 AVE","date":"2023-07-14 00:00:00"}},{"type":"Feature","geometry":{"type":"Point","coordinates":[-80.32682,25.75261]},"properties":{"type":"R","desc":"STANDALONE GENERATOR FOR EXISTING BUILDING","address":"8035 SW 19 ST","date":"2024-11-08 00:00:00"}},{"type":"Feature","geometry":{"type":"Point","coordinates":[-80.31404,25.70277]},"properties":{"type":"C","desc":"STANDALONE GENERATOR FOR EXISTING BUILDING","address":"7410 SUNSET DR","date":"2025-11-17 00:00:00"}},{"type":"Feature","geometry":{"type":"Point","coordinates":[-80.17765,25.85707]},"properties":{"type":"R","desc":"STANDALONE GENERATOR FOR EXISTING BUILDING","address":"8865 NE 9 CT","date":"2023-05-04 00:00:00"}},{"type":"Feature","geometry":{"type":"Point","coordinates":[-80.31451,25.71238]},"properties":{"type":"R","desc":"STANDALONE GENERATOR FOR EXISTING BUILDING","address":"6140 SW 74 AVE","date":"2025-08-13 00:00:00"}},{"type":"Feature","geometry":{"type":"Point","coordinates":[-80.34065,25.72433]},"properties":{"type":"R","desc":"STANDALONE GENERATOR FOR EXISTING BUILDING","address":"4720 SW 89 WAY","date":"2024-09-20 00:00:00"}},{"type":"Feature","geometry":{"type":"Point","coordinates":[-80.33179,25.73039]},"properties":{"type":"R","desc":"STANDALONE GENERATOR FOR EXISTING BUILDING","address":"4250 SW 84 AVE","date":"2024-09-13 00:00:00"}},{"type":"Feature","geometry":{"type":"Point","coordinates":[-80.34661,25.72675]},"properties":{"type":"R","desc":"STANDALONE GENERATOR FOR EXISTING BUILDING","address":"9351 SW 45 ST","date":"2024-02-01 00:00:00"}},{"type":"Feature","geometry":{"type":"Point","coordinates":[-80.24398,25.84642]},"properties":{"type":"C","desc":"STANDALONE GENERATOR FOR EXISTING BUILDING","address":"7900 NW 27 AVE","date":"2024-05-01 00:00:00"}},{"type":"Feature","geometry":{"type":"Point","coordinates":[-80.3088,25.71692]},"properties":{"type":"R","desc":"STANDALONE GENERATOR FOR EXISTING BUILDING","address":"7020 SW 57 ST","date":"2024-12-17 00:00:00"}},{"type":"Feature","geometry":{"type":"Point","coordinates":[-80.32241,25.7049]},"properties":{"type":"R","desc":"STANDALONE GENERATOR FOR EXISTING BUILDING","address":"7900 SW 69 TER","date":"2025-02-14 00:00:00"}},{"type":"Feature","geometry":{"type":"Point","coordinates":[-80.31992,25.80332]},"properties":{"type":"C","desc":"STANDALONE GENERATOR FOR EXISTING BUILDING","address":"3155 NW 77 AVE","date":"2024-12-04 00:00:00"}},{"type":"Feature","geometry":{"type":"Point","coordinates":[-80.34465,25.70524]},"properties":{"type":"R","desc":"STANDALONE GENERATOR FOR EXISTING BUILDING","address":"6805 SW 93 CT","date":"2025-07-16 00:00:00"}},{"type":"Feature","geometry":{"type":"Point","coordinates":[-80.23835,25.87508]},"properties":{"type":"C","desc":"STANDALONE GENERATOR FOR EXISTING BUILDING","address":"2450 NW 116 ST","date":"2021-12-03 00:00:00"}},{"type":"Feature","geometry":{"type":"Point","coordinates":[-80.31149,25.8061]},"properties":{"type":"C","desc":"STANDALONE GENERATOR FOR EXISTING BUILDING","address":"3407 NW 72 AVE","date":"2024-08-15 00:00:00"}},{"type":"Feature","geometry":{"type":"Point","coordinates":[-80.27743,25.70356]},"properties":{"type":"R","desc":"STANDALONE GENERATOR FOR EXISTING BUILDING","address":"7260 SW 52 AVE","date":"2025-02-11 00:00:00"}}]}